STARLINK-32581          
1 62184U 24225X   26068.66643026  .00010126  00000+0  85493-3 0  9992
2 62184  70.0041 154.4250 0002705 271.8979  88.1870 14.98344725 70122
ICEYE-X48               
1 63253U 25052AV  26068.70765702  .00004541  00000+0  39589-3 0  9999
2 63253  97.6979 322.3976 0002688 141.7433 218.3980 14.97356709 53782
